[
    {
        "Altitude(m)": 703438.7085444662,
        "Argument of Periapsis(deg)": 0.0,
        "Eccentricity": 0.0,
        "Inclination(deg)": 45.0,
        "Latitude(deg)": -0.060936897370355084,
        "Longitude(deg)": -50.02979912437146,
        "Mean Anomaly(deg)": 0.0,
        "RAAN(deg)": 50.0,
        "Satellite Name": "Constellation 1 220",
        "Satellite Number": 220,
        "Semi-Major Axis(m)": 7083131.272910544,
        "Time(s)": 0
    },
    {
        "Altitude(m)": 703433.0835946406,
        "Argument of Periapsis(deg)": 5.994800624540561e-05,
        "Eccentricity": 0.0,
        "Inclination(deg)": 45.0,
        "Latitude(deg)": -0.01772110784341329,
        "Longitude(deg)": -49.99105028635063,
        "Mean Anomaly(deg)": 0.060701140249899206,
        "RAAN(deg)": 49.999943410834426,
        "Satellite Name": "Constellation 1 220",
        "Satellite Number": 220,
        "Semi-Major Axis(m)": 7083131.272910544,
        "Time(s)": 1
    },
    {
        "Altitude(m)": 703427.4792980809,
        "Argument of Periapsis(deg)": 0.00011989601249081122,
        "Eccentricity": 0.0,
        "Inclination(deg)": 45.0,
        "Latitude(deg)": 0.02549476074608158,
        "Longitude(deg)": -49.952301400061536,
        "Mean Anomaly(deg)": 0.12140228049979841,
        "RAAN(deg)": 49.999886821668866,
        "Satellite Name": "Constellation 1 220",
        "Satellite Number": 220,
        "Semi-Major Axis(m)": 7083131.272910544,
        "Time(s)": 2
    },
    {
        "Altitude(m)": 703421.8956611974,
        "Argument of Periapsis(deg)": 0.00017984401873621686,
        "Eccentricity": 0.0,
        "Inclination(deg)": 45.0,
        "Latitude(deg)": 0.06871068346169591,
        "Longitude(deg)": -49.91355241720613,
        "Mean Anomaly(deg)": 0.18210342074969763,
        "RAAN(deg)": 49.99983023250329,
        "Satellite Name": "Constellation 1 220",
        "Satellite Number": 220,
        "Semi-Major Axis(m)": 7083131.272910544,
        "Time(s)": 3
    },
    {
        "Altitude(m)": 703416.332690279,
        "Argument of Periapsis(deg)": 0.00023979202498162244,
        "Eccentricity": 0.0,
        "Inclination(deg)": 45.0,
        "Latitude(deg)": 0.11192663536663892,
        "Longitude(deg)": -49.87480328948577,
        "Mean Anomaly(deg)": 0.24280456099959682,
        "RAAN(deg)": 49.99977364333772,
        "Satellite Name": "Constellation 1 220",
        "Satellite Number": 220,
        "Semi-Major Axis(m)": 7083131.272910544,
        "Time(s)": 4
    },
    {
        "Altitude(m)": 703410.7903915363,
        "Argument of Periapsis(deg)": 0.00029974003122702807,
        "Eccentricity": 0.0,
        "Inclination(deg)": 45.0,
        "Latitude(deg)": 0.15514259152364485,
        "Longitude(deg)": -49.83605396860145,
        "Mean Anomaly(deg)": 0.303505701249496,
        "RAAN(deg)": 49.99971705417215,
        "Satellite Name": "Constellation 1 220",
        "Satellite Number": 220,
        "Semi-Major Axis(m)": 7083131.272910544,
        "Time(s)": 5
    },
    {
        "Altitude(m)": 703405.2687710848,
        "Argument of Periapsis(deg)": 0.00035968803747243373,
        "Eccentricity": 0.0,
        "Inclination(deg)": 45.0,
        "Latitude(deg)": 0.1983585269948999,
        "Longitude(deg)": -49.79730440625331,
        "Mean Anomaly(deg)": 0.36420684149939525,
        "RAAN(deg)": 49.999660465006585,
        "Satellite Name": "Constellation 1 220",
        "Satellite Number": 220,
        "Semi-Major Axis(m)": 7083131.272910544,
        "Time(s)": 6
    },
    {
        "Altitude(m)": 703399.7678349442,
        "Argument of Periapsis(deg)": 0.00041963604371783933,
        "Eccentricity": 0.0,
        "Inclination(deg)": 45.0,
        "Latitude(deg)": 0.24157441684177053,
        "Longitude(deg)": -49.758554722237896,
        "Mean Anomaly(deg)": 0.42490798174929445,
        "RAAN(deg)": 49.99960387584101,
        "Satellite Name": "Constellation 1 220",
        "Satellite Number": 220,
        "Semi-Major Axis(m)": 7083131.272910544,
        "Time(s)": 7
    },
    {
        "Altitude(m)": 703394.2875890387,
        "Argument of Periapsis(deg)": 0.0004795840499632449,
        "Eccentricity": 0.0,
        "Inclination(deg)": 45.0,
        "Latitude(deg)": 0.2847902361254212,
        "Longitude(deg)": -49.71980453205971,
        "Mean Anomaly(deg)": 0.48560912199919365,
        "RAAN(deg)": 49.999547286675444,
        "Satellite Name": "Constellation 1 220",
        "Satellite Number": 220,
        "Semi-Major Axis(m)": 7083131.272910544,
        "Time(s)": 8
    },
    {
        "Altitude(m)": 703388.8280392057,
        "Argument of Periapsis(deg)": 0.0005395320562086505,
        "Eccentricity": 0.0,
        "Inclination(deg)": 45.0,
        "Latitude(deg)": 0.3280059599056604,
        "Longitude(deg)": -49.68105395551337,
        "Mean Anomaly(deg)": 0.5463102622490928,
        "RAAN(deg)": 49.99949069750987,
        "Satellite Name": "Constellation 1 220",
        "Satellite Number": 220,
        "Semi-Major Axis(m)": 7083131.272910544,
        "Time(s)": 9
    },
    {
        "Altitude(m)": 703383.3891911783,
        "Argument of Periapsis(deg)": 0.0005994800624540561,
        "Eccentricity": 0.0,
        "Inclination(deg)": 45.0,
        "Latitude(deg)": 0.3712215632415584,
        "Longitude(deg)": -49.64230294429535,
        "Mean Anomaly(deg)": 0.607011402498992,
        "RAAN(deg)": 49.99943410834431,
        "Satellite Name": "Constellation 1 220",
        "Satellite Number": 220,
        "Semi-Major Axis(m)": 7083131.272910544,
        "Time(s)": 10
    },
    {
        "Altitude(m)": 703377.9710506097,
        "Argument of Periapsis(deg)": 0.0006594280686994618,
        "Eccentricity": 0.0,
        "Inclination(deg)": 45.0,
        "Latitude(deg)": 0.4144370211911746,
        "Longitude(deg)": -49.60355145010101,
        "Mean Anomaly(deg)": 0.6677125427488849,
        "RAAN(deg)": 49.999377519178736,
        "Satellite Name": "Constellation 1 220",
        "Satellite Number": 220,
        "Semi-Major Axis(m)": 7083131.272910544,
        "Time(s)": 11
    },
    {
        "Altitude(m)": 703372.5736230456,
        "Argument of Periapsis(deg)": 0.0007193760749448675,
        "Eccentricity": 0.0,
        "Inclination(deg)": 45.0,
        "Latitude(deg)": 0.4576523088114868,
        "Longitude(deg)": -49.56479942462425,
        "Mean Anomaly(deg)": 0.7284136829987905,
        "RAAN(deg)": 49.99932093001317,
        "Satellite Name": "Constellation 1 220",
        "Satellite Number": 220,
        "Semi-Major Axis(m)": 7083131.272910544,
        "Time(s)": 12
    },
    {
        "Altitude(m)": 703367.1969139439,
        "Argument of Periapsis(deg)": 0.000779324081190273,
        "Eccentricity": 0.0,
        "Inclination(deg)": 45.0,
        "Latitude(deg)": 0.5008674011582706,
        "Longitude(deg)": -49.52604681955769,
        "Mean Anomaly(deg)": 0.7891148232486898,
        "RAAN(deg)": 49.999264340847596,
        "Satellite Name": "Constellation 1 220",
        "Satellite Number": 220,
        "Semi-Major Axis(m)": 7083131.272910544,
        "Time(s)": 13
    },
    {
        "Altitude(m)": 703361.8409286728,
        "Argument of Periapsis(deg)": 0.0008392720874356787,
        "Eccentricity": 0.0,
        "Inclination(deg)": 45.0,
        "Latitude(deg)": 0.544082273286028,
        "Longitude(deg)": -49.487293586592315,
        "Mean Anomaly(deg)": 0.8498159634985889,
        "RAAN(deg)": 49.99920775168202,
        "Satellite Name": "Constellation 1 220",
        "Satellite Number": 220,
        "Semi-Major Axis(m)": 7083131.272910544,
        "Time(s)": 14
    },
    {
        "Altitude(m)": 703356.5056724994,
        "Argument of Periapsis(deg)": 0.0008992200936810842,
        "Eccentricity": 0.0,
        "Inclination(deg)": 45.0,
        "Latitude(deg)": 0.5872969002477142,
        "Longitude(deg)": -49.448539845514574,
        "Mean Anomaly(deg)": 0.9105171037484817,
        "RAAN(deg)": 49.99915116251646,
        "Satellite Name": "Constellation 1 220",
        "Satellite Number": 220,
        "Semi-Major Axis(m)": 7083131.272910544,
        "Time(s)": 15
    },
    {
        "Altitude(m)": 703351.1911506011,
        "Argument of Periapsis(deg)": 0.0009591680999264898,
        "Eccentricity": 0.0,
        "Inclination(deg)": 45.0,
        "Latitude(deg)": 0.6305112570953604,
        "Longitude(deg)": -49.409785211818026,
        "Mean Anomaly(deg)": 0.9712182439983873,
        "RAAN(deg)": 49.99909457335089,
        "Satellite Name": "Constellation 1 220",
        "Satellite Number": 220,
        "Semi-Major Axis(m)": 7083131.272910544,
        "Time(s)": 16
    },
    {
        "Altitude(m)": 703345.8973680652,
        "Argument of Periapsis(deg)": 0.0010191161061718953,
        "Eccentricity": 0.0,
        "Inclination(deg)": 45.0,
        "Latitude(deg)": 0.6737253188789106,
        "Longitude(deg)": -49.37102980528551,
        "Mean Anomaly(deg)": 1.0319193842482866,
        "RAAN(deg)": 49.999037984185314,
        "Satellite Name": "Constellation 1 220",
        "Satellite Number": 220,
        "Semi-Major Axis(m)": 7083131.272910544,
        "Time(s)": 17
    },
    {
        "Altitude(m)": 703340.624329872,
        "Argument of Periapsis(deg)": 0.001079064112417301,
        "Eccentricity": 0.0,
        "Inclination(deg)": 45.0,
        "Latitude(deg)": 0.7169390606468481,
        "Longitude(deg)": -49.33227357760084,
        "Mean Anomaly(deg)": 1.0926205244981857,
        "RAAN(deg)": 49.99898139501975,
        "Satellite Name": "Constellation 1 220",
        "Satellite Number": 220,
        "Semi-Major Axis(m)": 7083131.272910544,
        "Time(s)": 18
    }
]